SL-3 R/B                
1 13403U 82079B   25349.89894508  .00004296  00000+0  17646-3 0  9998
2 13403  81.1469 291.9365 0027091  88.9101 271.5236 15.23626803364930
SL-14 R/B               
1 13553U 82092B   25349.90199206  .00000452  00000+0  48095-4 0  9997
2 13553  82.5680 219.7546 0019374 215.9192 154.4884 14.86558664316484
SL-3 R/B                
1 13819U 83010B   25349.81895502  .00010427  00000+0  23045-3 0  9995
2 13819  81.1034 104.8595 0017022 340.3121  19.7463 15.43543755344990
SL-3 R/B                
1 14208U 83075B   25349.97909689  .00007640  00000+0  21712-3 0  9990
2 14208  97.6102 346.5717 0023105 164.0292 196.1685 15.36203226317298
COSMOS 1536             
1 14699U 84013A   25349.96098767  .00004232  00000+0  18056-3 0  9993
2 14699  82.5453 190.9698 0013760 213.4635 146.5733 15.22554646259871
SL-14 R/B               
1 14820U 84027B   25349.98996765  .00000524  00000+0  57228-4 0  9996
2 14820  82.5413 323.5078 0016417 249.0189 110.9271 14.85877966235204
SL-8 R/B                
1 15483U 85006B   25349.97379772  .00000221  00000+0  81919-4 0  9990
2 15483  74.0466  55.1850 0018825 346.6659 186.4695 14.37723015141993
SL-12 R/B(2)            
1 15772U 85042D   25349.98460263  .00000043  00000+0  41076-4 0  9990
2 15772  71.1082 264.5649 0037511 256.7604 178.2165 14.21952917102493
SL-14 R/B               
1 15945U 85069B   25349.79827650  .00000569  00000+0  61606-4 0  9991
2 15945  82.5270 103.8276 0020274 109.0674 251.2740 14.86328204160375
SL-16 R/B               
1 16182U 85097B   25349.95698435  .00000264  00000+0  15623-3 0  9990
2 16182  71.0036 316.8297 0006910   5.8536  54.6149 14.16586097 75374
SL-14 R/B               
1 16496U 86006B   25349.93064824  .00000618  00000+0  63106-4 0  9999
2 16496  82.5266 338.5484 0076432 189.1646 170.8183 14.86676003136761
COSMOS 1743             
1 16719U 86034A   25349.94214873  .00023743  00000+0  38881-3 0  9995
2 16719  82.5340 161.2646 0004698 238.7260 121.3533 15.52332834167232
