CCSDS_OMM_VERS = 2.0
CREATION_DATE  = 
ORIGINATOR     = 

OBJECT_NAME    = SL-3 R/B
OBJECT_ID      = 1982-079B
CENTER_NAME    = EARTH
REF_FRAME      = TEME
TIME_SYSTEM    = UTC
MEAN_ELEMENT_THEORY = SGP/SGP4

EPOCH          = 2025-12-15T21:34:28.854912
MEAN_MOTION    = 15.23626803
ECCENTRICITY   = .00270917
INCLINATION    = 81.1469
RA_OF_ASC_NODE = 291.9365
ARG_OF_PERICENTER = 88.9101
MEAN_ANOMALY   = 271.5236

EPHEMERIS_TYPE = 0
CLASSIFICATION_TYPE = U
NORAD_CAT_ID   = 13403
ELEMENT_SET_NO = 999
REV_AT_EPOCH   = 36493
BSTAR          = .17645982E-3
MEAN_MOTION_DOT = .4296E-4
MEAN_MOTION_DDOT = 0

CCSDS_OMM_VERS = 2.0
CREATION_DATE  = 
ORIGINATOR     = 

OBJECT_NAME    = SL-14 R/B
OBJECT_ID      = 1982-092B
CENTER_NAME    = EARTH
REF_FRAME      = TEME
TIME_SYSTEM    = UTC
MEAN_ELEMENT_THEORY = SGP/SGP4

EPOCH          = 2025-12-15T21:38:52.113984
MEAN_MOTION    = 14.86558664
ECCENTRICITY   = .00193745
INCLINATION    = 82.5680
RA_OF_ASC_NODE = 219.7546
ARG_OF_PERICENTER = 215.9192
MEAN_ANOMALY   = 154.4884

EPHEMERIS_TYPE = 0
CLASSIFICATION_TYPE = U
NORAD_CAT_ID   = 13553
ELEMENT_SET_NO = 999
REV_AT_EPOCH   = 31648
BSTAR          = .48094541E-4
MEAN_MOTION_DOT = .452E-5
MEAN_MOTION_DDOT = 0

CCSDS_OMM_VERS = 2.0
CREATION_DATE  = 
ORIGINATOR     = 

OBJECT_NAME    = SL-3 R/B
OBJECT_ID      = 1983-010B
CENTER_NAME    = EARTH
REF_FRAME      = TEME
TIME_SYSTEM    = UTC
MEAN_ELEMENT_THEORY = SGP/SGP4

EPOCH          = 2025-12-15T19:39:17.713728
MEAN_MOTION    = 15.43543755
ECCENTRICITY   = .00170229
INCLINATION    = 81.1034
RA_OF_ASC_NODE = 104.8595
ARG_OF_PERICENTER = 340.3121
MEAN_ANOMALY   = 19.7463

EPHEMERIS_TYPE = 0
CLASSIFICATION_TYPE = U
NORAD_CAT_ID   = 13819
ELEMENT_SET_NO = 999
REV_AT_EPOCH   = 34499
BSTAR          = .23044585E-3
MEAN_MOTION_DOT = .10427E-3
MEAN_MOTION_DDOT = 0

CCSDS_OMM_VERS = 2.0
CREATION_DATE  = 
ORIGINATOR     = 

OBJECT_NAME    = SL-3 R/B
OBJECT_ID      = 1983-075B
CENTER_NAME    = EARTH
REF_FRAME      = TEME
TIME_SYSTEM    = UTC
MEAN_ELEMENT_THEORY = SGP/SGP4

EPOCH          = 2025-12-15T23:29:53.971296
MEAN_MOTION    = 15.36203226
ECCENTRICITY   = .00231058
INCLINATION    = 97.6102
RA_OF_ASC_NODE = 346.5717
ARG_OF_PERICENTER = 164.0292
MEAN_ANOMALY   = 196.1685

EPHEMERIS_TYPE = 0
CLASSIFICATION_TYPE = U
NORAD_CAT_ID   = 14208
ELEMENT_SET_NO = 999
REV_AT_EPOCH   = 31729
BSTAR          = .2171184E-3
MEAN_MOTION_DOT = .764E-4
MEAN_MOTION_DDOT = 0

CCSDS_OMM_VERS = 2.0
CREATION_DATE  = 
ORIGINATOR     = 

OBJECT_NAME    = COSMOS 1536
OBJECT_ID      = 1984-013A
CENTER_NAME    = EARTH
REF_FRAME      = TEME
TIME_SYSTEM    = UTC
MEAN_ELEMENT_THEORY = SGP/SGP4

EPOCH          = 2025-12-15T23:03:49.334688
MEAN_MOTION    = 15.22554646
ECCENTRICITY   = .00137602
INCLINATION    = 82.5453
RA_OF_ASC_NODE = 190.9698
ARG_OF_PERICENTER = 213.4635
MEAN_ANOMALY   = 146.5733

EPHEMERIS_TYPE = 0
CLASSIFICATION_TYPE = U
NORAD_CAT_ID   = 14699
ELEMENT_SET_NO = 999
REV_AT_EPOCH   = 25987
BSTAR          = .18056411E-3
MEAN_MOTION_DOT = .4232E-4
MEAN_MOTION_DDOT = 0

CCSDS_OMM_VERS = 2.0
CREATION_DATE  = 
ORIGINATOR     = 

OBJECT_NAME    = SL-14 R/B
OBJECT_ID      = 1984-027B
CENTER_NAME    = EARTH
REF_FRAME      = TEME
TIME_SYSTEM    = UTC
MEAN_ELEMENT_THEORY = SGP/SGP4

EPOCH          = 2025-12-15T23:45:33.204960
MEAN_MOTION    = 14.85877966
ECCENTRICITY   = .00164172
INCLINATION    = 82.5413
RA_OF_ASC_NODE = 323.5078
ARG_OF_PERICENTER = 249.0189
MEAN_ANOMALY   = 110.9271

EPHEMERIS_TYPE = 0
CLASSIFICATION_TYPE = U
NORAD_CAT_ID   = 14820
ELEMENT_SET_NO = 999
REV_AT_EPOCH   = 23520
BSTAR          = .57228442E-4
MEAN_MOTION_DOT = .524E-5
MEAN_MOTION_DDOT = 0

CCSDS_OMM_VERS = 2.0
CREATION_DATE  = 
ORIGINATOR     = 

OBJECT_NAME    = SL-8 R/B
OBJECT_ID      = 1985-006B
CENTER_NAME    = EARTH
REF_FRAME      = TEME
TIME_SYSTEM    = UTC
MEAN_ELEMENT_THEORY = SGP/SGP4

EPOCH          = 2025-12-15T23:22:16.123008
MEAN_MOTION    = 14.37723015
ECCENTRICITY   = .00188257
INCLINATION    = 74.0466
RA_OF_ASC_NODE = 55.1850
ARG_OF_PERICENTER = 346.6659
MEAN_ANOMALY   = 186.4695

EPHEMERIS_TYPE = 0
CLASSIFICATION_TYPE = U
NORAD_CAT_ID   = 15483
ELEMENT_SET_NO = 999
REV_AT_EPOCH   = 14199
BSTAR          = .81919127E-4
MEAN_MOTION_DOT = .221E-5
MEAN_MOTION_DDOT = 0

CCSDS_OMM_VERS = 2.0
CREATION_DATE  = 
ORIGINATOR     = 

OBJECT_NAME    = SL-12 R/B(2)
OBJECT_ID      = 1985-042D
CENTER_NAME    = EARTH
REF_FRAME      = TEME
TIME_SYSTEM    = UTC
MEAN_ELEMENT_THEORY = SGP/SGP4

EPOCH          = 2025-12-15T23:37:49.667232
MEAN_MOTION    = 14.21952917
ECCENTRICITY   = .00375119
INCLINATION    = 71.1082
RA_OF_ASC_NODE = 264.5649
ARG_OF_PERICENTER = 256.7604
MEAN_ANOMALY   = 178.2165

EPHEMERIS_TYPE = 0
CLASSIFICATION_TYPE = U
NORAD_CAT_ID   = 15772
ELEMENT_SET_NO = 999
REV_AT_EPOCH   = 10249
BSTAR          = .41075855E-4
MEAN_MOTION_DOT = .43E-6
MEAN_MOTION_DDOT = 0

CCSDS_OMM_VERS = 2.0
CREATION_DATE  = 
ORIGINATOR     = 

OBJECT_NAME    = SL-14 R/B
OBJECT_ID      = 1985-069B
CENTER_NAME    = EARTH
REF_FRAME      = TEME
TIME_SYSTEM    = UTC
MEAN_ELEMENT_THEORY = SGP/SGP4

EPOCH          = 2025-12-15T19:09:31.089600
MEAN_MOTION    = 14.86328204
ECCENTRICITY   = .0020274
INCLINATION    = 82.5270
RA_OF_ASC_NODE = 103.8276
ARG_OF_PERICENTER = 109.0674
MEAN_ANOMALY   = 251.2740

EPHEMERIS_TYPE = 0
CLASSIFICATION_TYPE = U
NORAD_CAT_ID   = 15945
ELEMENT_SET_NO = 999
REV_AT_EPOCH   = 16037
BSTAR          = .61606224E-4
MEAN_MOTION_DOT = .569E-5
MEAN_MOTION_DDOT = 0

CCSDS_OMM_VERS = 2.0
CREATION_DATE  = 
ORIGINATOR     = 

OBJECT_NAME    = SL-16 R/B
OBJECT_ID      = 1985-097B
CENTER_NAME    = EARTH
REF_FRAME      = TEME
TIME_SYSTEM    = UTC
MEAN_ELEMENT_THEORY = SGP/SGP4

EPOCH          = 2025-12-15T22:58:03.447840
MEAN_MOTION    = 14.16586097
ECCENTRICITY   = .00069107
INCLINATION    = 71.0036
RA_OF_ASC_NODE = 316.8297
ARG_OF_PERICENTER = 5.8536
MEAN_ANOMALY   = 54.6149

EPHEMERIS_TYPE = 0
CLASSIFICATION_TYPE = U
NORAD_CAT_ID   = 16182
ELEMENT_SET_NO = 999
REV_AT_EPOCH   = 7537
BSTAR          = .15622888E-3
MEAN_MOTION_DOT = .264E-5
MEAN_MOTION_DDOT = 0

CCSDS_OMM_VERS = 2.0
CREATION_DATE  = 
ORIGINATOR     = 

OBJECT_NAME    = SL-14 R/B
OBJECT_ID      = 1986-006B
CENTER_NAME    = EARTH
REF_FRAME      = TEME
TIME_SYSTEM    = UTC
MEAN_ELEMENT_THEORY = SGP/SGP4

EPOCH          = 2025-12-15T22:20:08.007936
MEAN_MOTION    = 14.86676003
ECCENTRICITY   = .00764328
INCLINATION    = 82.5266
RA_OF_ASC_NODE = 338.5484
ARG_OF_PERICENTER = 189.1646
MEAN_ANOMALY   = 170.8183

EPHEMERIS_TYPE = 0
CLASSIFICATION_TYPE = U
NORAD_CAT_ID   = 16496
ELEMENT_SET_NO = 999
REV_AT_EPOCH   = 13676
BSTAR          = .63105752E-4
MEAN_MOTION_DOT = .618E-5
MEAN_MOTION_DDOT = 0

CCSDS_OMM_VERS = 2.0
CREATION_DATE  = 
ORIGINATOR     = 

OBJECT_NAME    = COSMOS 1743
OBJECT_ID      = 1986-034A
CENTER_NAME    = EARTH
REF_FRAME      = TEME
TIME_SYSTEM    = UTC
MEAN_ELEMENT_THEORY = SGP/SGP4

EPOCH          = 2025-12-15T22:36:41.650272
MEAN_MOTION    = 15.52332834
ECCENTRICITY   = .00046984
INCLINATION    = 82.5340
RA_OF_ASC_NODE = 161.2646
ARG_OF_PERICENTER = 238.7260
MEAN_ANOMALY   = 121.3533

EPHEMERIS_TYPE = 0
CLASSIFICATION_TYPE = U
NORAD_CAT_ID   = 16719
ELEMENT_SET_NO = 999
REV_AT_EPOCH   = 16723
BSTAR          = .38880825E-3
MEAN_MOTION_DOT = .23743E-3
MEAN_MOTION_DDOT = 0

